start=new Date('2022-06-23T00:00:00.000Z').valueOf();
sats=[{"REF_FRAME":"TEME","ELEMENT_SET_NO":"999","MEAN_ANOMALY":"305.7308","RA_OF_ASC_NODE":"205.3841","BSTAR":"-0.00002061400000","MEAN_MOTION_DOT":"-0.00000589","APOAPSIS":"548.263","COUNTRY_CODE":"US","PERIAPSIS":"546.123","EPOCH":"2022-06-22T08:53:31.964640","MEAN_ELEMENT_THEORY":"SGP4","PERIOD":"95.592","INCLINATION":"53.0539","FILE":"3499789","CLASSIFICATION_TYPE":"U","ECCENTRICITY":"0.00015450","ARG_OF_PERICENTER":"54.3825","LAUNCH_DATE":"2020-06-13","MEAN_MOTION":"15.06406572","CENTER_NAME":"EARTH","RCS_SIZE":"LARGE","OBJECT_NAME":"STARLINK-1461","SITE":"AFETR","REV_AT_EPOCH":"11177","OBJECT_ID":"2020-038A","SEMIMAJOR_AXIS":"6925.328","DECAY_DATE":null,"TLE_LINE2":"2 45730  53.0539 205.3841 0001545  54.3825 305.7308 15.06406572111770","TLE_LINE1":"1 45730U 20038A   22173.37050885 -.00000589  00000-0 -20614-4 0  9994","TIME_SYSTEM":"UTC","GP_ID":"206617711","EPHEMERIS_TYPE":"0","MEAN_MOTION_DDOT":"0.0000000000000","OBJECT_TYPE":"PAYLOAD","NORAD_CAT_ID":"45730"},{"MEAN_ANOMALY":"302.1489","ELEMENT_SET_NO":"999","REF_FRAME":"TEME","BSTAR":"-0.00010003000000","RA_OF_ASC_NODE":"203.5193","EPOCH":"2022-06-22T18:48:01.372608","COUNTRY_CODE":"US","PERIAPSIS":"546.246","MEAN_ELEMENT_THEORY":"SGP4","MEAN_MOTION_DOT":"-0.00001771","APOAPSIS":"548.259","FILE":"3500001","CLASSIFICATION_TYPE":"U","ECCENTRICITY":"0.00014530","INCLINATION":"53.0514","PERIOD":"95.593","CENTER_NAME":"EARTH","MEAN_MOTION":"15.06387224","RCS_SIZE":"LARGE","OBJECT_NAME":"STARLINK-1465","ARG_OF_PERICENTER":"57.9641","LAUNCH_DATE":"2020-06-13","SITE":"AFETR","OBJECT_ID":"2020-038B","SEMIMAJOR_AXIS":"6925.388","DECAY_DATE":null,"REV_AT_EPOCH":"11182","TIME_SYSTEM":"UTC","GP_ID":"206645854","EPHEMERIS_TYPE":"0","TLE_LINE2":"2 45731  53.0514 203.5193 0001453  57.9641 302.1489 15.06387224111826","TLE_LINE1":"1 45731U 20038B   22173.78334922 -.00001771  00000-0 -10003-3 0  9991","OBJECT_TYPE":"PAYLOAD","NORAD_CAT_ID":"45731","MEAN_MOTION_DDOT":"0.0000000000000"},{"MEAN_ANOMALY":"300.7485","ELEMENT_SET_NO":"999","REF_FRAME":"TEME","RA_OF_ASC_NODE":"203.5672","BSTAR":"-0.00001647100000","EPOCH":"2022-06-22T18:32:05.417088","COUNTRY_CODE":"US","PERIAPSIS":"545.968","MEAN_ELEMENT_THEORY":"SGP4","MEAN_MOTION_DOT":"-0.00000527","APOAPSIS":"548.554","FILE":"3500001","CLASSIFICATION_TYPE":"U","ECCENTRICITY":"0.00018670","INCLINATION":"53.0546","PERIOD":"95.593","MEAN_MOTION":"15.06384628","CENTER_NAME":"EARTH","RCS_SIZE":"LARGE","OBJECT_NAME":"STARLINK-1466","ARG_OF_PERICENTER":"59.3688","LAUNCH_DATE":"2020-06-13","SITE":"AFETR","OBJECT_ID":"2020-038C","DECAY_DATE":null,"SEMIMAJOR_AXIS":"6925.396","REV_AT_EPOCH":"11182","TIME_SYSTEM":"UTC","GP_ID":"206646104","EPHEMERIS_TYPE":"0","TLE_LINE2":"2 45732  53.0546 203.5672 0001867  59.3688 300.7485 15.06384628111825","TLE_LINE1":"1 45732U 20038C   22173.77228492 -.00000527  00000-0 -16471-4 0  9999","OBJECT_TYPE":"PAYLOAD","NORAD_CAT_ID":"45732","MEAN_MOTION_DDOT":"0.0000000000000"},{"RCS_SIZE":"LARGE","OBJECT_NAME":"STARLINK-1467","CENTER_NAME":"EARTH","MEAN_MOTION":"15.06406406","LAUNCH_DATE":"2020-06-13","ARG_OF_PERICENTER":"52.5820","ECCENTRICITY":"0.00016910","CLASSIFICATION_TYPE":"U","FILE":"3500001","PERIOD":"95.592","INCLINATION":"53.0526","MEAN_ELEMENT_THEORY":"SGP4","COUNTRY_CODE":"US","PERIAPSIS":"546.023","EPOCH":"2022-06-22T18:42:41.598432","APOAPSIS":"548.365","MEAN_MOTION_DOT":"-0.00001184","BSTAR":"-0.00006057200000","RA_OF_ASC_NODE":"203.5329","ELEMENT_SET_NO":"999","REF_FRAME":"TEME","MEAN_ANOMALY":"307.5323","NORAD_CAT_ID":"45733","OBJECT_TYPE":"PAYLOAD","MEAN_MOTION_DDOT":"0.0000000000000","GP_ID":"206646355","EPHEMERIS_TYPE":"0","TIME_SYSTEM":"UTC","TLE_LINE1":"1 45733U 20038D   22173.77964813 -.00001184  00000-0 -60572-4 0  9995","TLE_LINE2":"2 45733  53.0526 203.5329 0001691  52.5820 307.5323 15.06406406111826","DECAY_DATE":null,"SEMIMAJOR_AXIS":"6925.329","OBJECT_ID":"2020-038D","REV_AT_EPOCH":"11182","SITE":"AFETR"},{"MEAN_ANOMALY":"302.6160","ELEMENT_SET_NO":"999","REF_FRAME":"TEME","BSTAR":"0.00002522300000","RA_OF_ASC_NODE":"205.4139","MEAN_MOTION_DOT":"0.00000094","APOAPSIS":"548.506","EPOCH":"2022-06-22T08:42:56.679264","COUNTRY_CODE":"US","PERIAPSIS":"545.983","MEAN_ELEMENT_THEORY":"SGP4","INCLINATION":"53.0530","PERIOD":"95.593","FILE":"3499789","CLASSIFICATION_TYPE":"U","ECCENTRICITY":"0.00018210","ARG_OF_PERICENTER":"57.5005","LAUNCH_DATE":"2020-06-13","CENTER_NAME":"EARTH","MEAN_MOTION":"15.06389879","RCS_SIZE":"LARGE","OBJECT_NAME":"STARLINK-1468","SITE":"AFETR","REV_AT_EPOCH":"11176","OBJECT_ID":"2020-038E","SEMIMAJOR_AXIS":"6925.380","DECAY_DATE":null,"TLE_LINE2":"2 45734  53.0530 205.4139 0001821  57.5005 302.6160 15.06389879111769","TLE_LINE1":"1 45734U 20038E   22173.36315601  .00000094  00000-0  25223-4 0  9997","TIME_SYSTEM":"UTC","EPHEMERIS_TYPE":"0","GP_ID":"206617211","MEAN_MOTION_DDOT":"0.0000000000000","OBJECT_TYPE":"PAYLOAD","NORAD_CAT_ID":"45734"},{"NORAD_CAT_ID":"45735","OBJECT_TYPE":"PAYLOAD","MEAN_MOTION_DDOT":"0.0000000000000","GP_ID":"206645354","EPHEMERIS_TYPE":"0","TIME_SYSTEM":"UTC","TLE_LINE1":"1 45735U 20038F   22173.79808759  .00000189  00000-0  31547-4 0  9997","TLE_LINE2":"2 45735  53.0540 203.4643 0001163  79.5850 280.5270 15.06396742111820","DECAY_DATE":null,"SEMIMAJOR_AXIS":"6925.359","OBJECT_ID":"2020-038F","REV_AT_EPOCH":"11182","SITE":"AFETR","RCS_SIZE":"LARGE","OBJECT_NAME":"STARLINK-1471","MEAN_MOTION":"15.06396742","CENTER_NAME":"EARTH","LAUNCH_DATE":"2020-06-13","ARG_OF_PERICENTER":"79.5850","ECCENTRICITY":"0.00011630","FILE":"3500001","CLASSIFICATION_TYPE":"U","INCLINATION":"53.0540","PERIOD":"95.592","MEAN_ELEMENT_THEORY":"SGP4","EPOCH":"2022-06-22T19:09:14.767776","PERIAPSIS":"546.418","COUNTRY_CODE":"US","APOAPSIS":"548.029","MEAN_MOTION_DOT":"0.00000189","BSTAR":"0.00003154700000","RA_OF_ASC_NODE":"203.4643","MEAN_ANOMALY":"280.5270","REF_FRAME":"TEME","ELEMENT_SET_NO":"999"},{"MEAN_MOTION":"15.37837818","CENTER_NAME":"EARTH","OBJECT_NAME":"STARLINK-1472","RCS_SIZE":"LARGE","ARG_OF_PERICENTER":"341.7993","LAUNCH_DATE":"2020-06-13","CLASSIFICATION_TYPE":"U","FILE":"3499612","ECCENTRICITY":"0.00020160","PERIOD":"93.638","INCLINATION":"53.0614","PERIAPSIS":"451.129","COUNTRY_CODE":"US","EPOCH":"2022-06-22T11:42:11.180160","MEAN_ELEMENT_THEORY":"SGP4","MEAN_MOTION_DOT":"0.00009246","APOAPSIS":"453.883","REF_FRAME":"TEME","ELEMENT_SET_NO":"999","MEAN_ANOMALY":"18.2938","BSTAR":"0.00025507000000","RA_OF_ASC_NODE":"175.2030","OBJECT_TYPE":"PAYLOAD","NORAD_CAT_ID":"45736","MEAN_MOTION_DDOT":"0.0000000000000","TIME_SYSTEM":"UTC","EPHEMERIS_TYPE":"0","GP_ID":"206593190","TLE_LINE2":"2 45736  53.0614 175.2030 0002016 341.7993  18.2938 15.37837818113321","TLE_LINE1":"1 45736U 20038G   22173.48762940  .00009246  00000-0  25507-3 0  9996","OBJECT_ID":"2020-038G","DECAY_DATE":null,"SEMIMAJOR_AXIS":"6830.641","REV_AT_EPOCH":"11332","SITE":"AFETR"},{"REF_FRAME":"TEME","ELEMENT_SET_NO":"999","MEAN_ANOMALY":"301.6016","RA_OF_ASC_NODE":"203.5134","BSTAR":"0.00002336800000","MEAN_MOTION_DOT":"0.00000066","APOAPSIS":"548.329","COUNTRY_CODE":"US","PERIAPSIS":"546.156","EPOCH":"2022-06-22T18:53:19.707360","MEAN_ELEMENT_THEORY":"SGP4","PERIOD":"95.593","INCLINATION":"53.0550","FILE":"3500001","CLASSIFICATION_TYPE":"U","ECCENTRICITY":"0.00015690","ARG_OF_PERICENTER":"58.5126","LAUNCH_DATE":"2020-06-13","CENTER_NAME":"EARTH","MEAN_MOTION":"15.06390452","RCS_SIZE":"LARGE","OBJECT_NAME":"STARLINK-1474","SITE":"AFETR","REV_AT_EPOCH":"11182","OBJECT_ID":"2020-038J","DECAY_DATE":null,"SEMIMAJOR_AXIS":"6925.378","TLE_LINE2":"2 45738  53.0550 203.5134 0001569  58.5126 301.6016 15.06390452111828","TLE_LINE1":"1 45738U 20038J   22173.78703365  .00000066  00000-0  23368-4 0  9992","TIME_SYSTEM":"UTC","GP_ID":"206646856","EPHEMERIS_TYPE":"0","MEAN_MOTION_DDOT":"0.0000000000000","OBJECT_TYPE":"PAYLOAD","NORAD_CAT_ID":"45738"},{"SITE":"AFETR","DECAY_DATE":null,"SEMIMAJOR_AXIS":"6925.361","OBJECT_ID":"2020-038K","REV_AT_EPOCH":"11236","EPHEMERIS_TYPE":"0","GP_ID":"206646606","TIME_SYSTEM":"UTC","TLE_LINE1":"1 45739U 20038K   22173.66813116 -.00000578  00000-0 -19864-4 0  9992","TLE_LINE2":"2 45739  53.0550 164.0210 0001983  44.0526 316.0620 15.06395965112364","NORAD_CAT_ID":"45739","OBJECT_TYPE":"PAYLOAD","MEAN_MOTION_DDOT":"0.0000000000000","BSTAR":"-0.00001986400000","RA_OF_ASC_NODE":"164.0210","MEAN_ANOMALY":"316.0620","REF_FRAME":"TEME","ELEMENT_SET_NO":"999","MEAN_ELEMENT_THEORY":"SGP4","EPOCH":"2022-06-22T16:02:06.532224","COUNTRY_CODE":"US","PERIAPSIS":"545.853","APOAPSIS":"548.599","MEAN_MOTION_DOT":"-0.00000578","ECCENTRICITY":"0.00019830","FILE":"3500001","CLASSIFICATION_TYPE":"U","INCLINATION":"53.0550","PERIOD":"95.592","OBJECT_NAME":"STARLINK-1475","RCS_SIZE":"LARGE","MEAN_MOTION":"15.06395965","CENTER_NAME":"EARTH","LAUNCH_DATE":"2020-06-13","ARG_OF_PERICENTER":"44.0526"},{"MEAN_ELEMENT_THEORY":"SGP4","COUNTRY_CODE":"US","PERIAPSIS":"546.241","EPOCH":"2022-06-22T19:03:55.802304","APOAPSIS":"548.197","MEAN_MOTION_DOT":"0.00000434","BSTAR":"0.00004804000000","RA_OF_ASC_NODE":"203.4757","ELEMENT_SET_NO":"999","REF_FRAME":"TEME","MEAN_ANOMALY":"296.9286","RCS_SIZE":"LARGE","OBJECT_NAME":"STARLINK-1479","MEAN_MOTION":"15.06398255","CENTER_NAME":"EARTH","LAUNCH_DATE":"2020-06-13","ARG_OF_PERICENTER":"63.1847","ECCENTRICITY":"0.00014120","CLASSIFICATION_TYPE":"U","FILE":"3500001","PERIOD":"95.592","INCLINATION":"53.0532","SEMIMAJOR_AXIS":"6925.354","DECAY_DATE":null,"OBJECT_ID":"2020-038L","REV_AT_EPOCH":"11182","SITE":"AFETR","NORAD_CAT_ID":"45740","OBJECT_TYPE":"PAYLOAD","MEAN_MOTION_DDOT":"0.0000000000000","EPHEMERIS_TYPE":"0","GP_ID":"206645855","TIME_SYSTEM":"UTC","TLE_LINE1":"1 45740U 20038L   22173.79439586  .00000434  00000-0  48040-4 0  9990","TLE_LINE2":"2 45740  53.0532 203.4757 0001412  63.1847 296.9286 15.06398255111824"}];
